#aV2023  5 23  0  0  0.00000000     288 DD+AD WGS84 FIT  NGA
## 2263 172800.00000000   300.00000000 60087 0.0000000000000
+   32     1  2  3  4  5  6  7  8  9 10 11 12 13 14 15 16 17
+         18 19 20 21 22 23 24 25 26 27 28 29 30 31 32  0  0
+          0  0  0  0  0  0  0  0  0  0  0  0  0  0  0  0  0
+          0  0  0  0  0  0  0  0  0  0  0  0  0  0  0  0  0
+          0  0  0  0  0  0  0  0  0  0  0  0  0  0  0  0  0
++         2  2  2  2  2  2  2  2  2  2  2  2  2  2  2  2  2
++         2  2  2  2  2  2  2  2  2  2  2  2  2  2  2  0  0
++         0  0  0  0  0  0  0  0  0  0  0  0  0  0  0  0  0
++         0  0  0  0  0  0  0  0  0  0  0  0  0  0  0  0  0
++         0  0  0  0  0  0  0  0  0  0  0  0  0  0  0  0  0
%c cc cc ccc ccc cccc cccc cccc cccc ccccc ccccc ccccc ccccc
%c cc cc ccc ccc cccc cccc cccc cccc ccccc ccccc ccccc ccccc
%f  0.0000000  0.000000000  0.00000000000  0.000000000000000
%f  0.0000000  0.000000000  0.00000000000  0.000000000000000
%i    0    0    0    0      0      0      0      0         0
%i    0    0    0    0      0      0      0      0         0
/*      NGA, ST. LOUIS,MO.                                  
/*   EPHEMERIS COMPUTED FROM 2 DAYS OF DATA                 
/*   EPOCHA v8 SMOOTHER                                     
/*   G2139 IERS2010 SATIGS SATAPC                           
*  2023  5 23 18 55  0.00000000
P  1  22102.778372  14934.872590  -2379.022117    183.208666                    
V  1  -3006.704676     33.334336 -31969.331124     -0.027101                    
P  2   6482.165468  17279.524583 -18735.134928   -593.189561                    
V  2 -22935.081280  -9293.265348 -15822.537216      0.039400                    
P  3  12513.918423  14239.229034  18522.750669   -294.365891                    
V  3  -1055.259751  23707.683597 -17269.734634      0.118639                    
P  4  18629.178651   4538.817110  18439.781708     49.086250                    
V  4 -19869.836930  12334.096419  16938.205971      0.099100                    
P  5  -5474.044422 -25255.225896  -6034.241244   -128.323056                    
V  5   2229.430255  -7581.902196  30712.674685     -0.014690                    
P  6  10344.781612 -10748.164465  22043.277352    587.621252                    
V  6  23881.088452  14143.868333  -4227.472844     -0.007901                    
P  7  23785.315622   4588.863374 -10977.959824    170.943330                    
V  7  11334.735032   9347.095587  26844.211028     -0.095253                    
P  8   8217.242883  12903.630200 -21784.440381   -123.858215                    
V  8 -23433.772352  14387.362599     68.444480     -0.018492                    
P  9  23487.987034  -5101.084006  11275.960172   -152.310644                    
V  9 -10953.353666   9718.943134  26999.111923      0.085126                    
P 10 -11204.732331  16850.147573 -16858.867667    -38.155355                    
V 10  -1834.763861 -21817.251369 -20672.476930     -0.016004                    
P 11  -4748.883282 -18343.641407  18636.297714   -207.733826                    
V 11  20642.380491  11564.274894  16610.716582     -0.142117                    
P 12 -10448.496954 -17585.377152  16706.902474   -379.645839                    
V 12   3118.119471 -21550.662902 -20313.629272     -0.046883                    
P 13    762.939321 -16093.571337 -21254.479182    524.068409                    
V 13  24859.832539  -9472.895013   8334.579454      0.052954                    
P 14  13415.039554 -13793.167594 -18232.745765     66.753583                    
V 14   1199.750088  23305.414811 -16885.882891      0.126651                    
P 15 -10419.256382 -12222.667972 -21618.199959     42.221231                    
V 15  20796.963822 -16410.406230   -497.306507      0.034599                    
P 16    175.996578  26134.176500  -3356.422713   -498.404108                    
V 16  -3315.093536   3682.188045  31776.917200      0.034452                    
P 17  22306.636808 -14133.267827   3771.732311    715.878223                    
V 17   4790.949446     84.030928 -31507.374054      0.014105                    
P 18 -22271.758337  -1799.633200 -14478.795975   -278.426595                    
V 18 -14849.364624 -10821.892084  24037.112481     -0.156121                    
P 19  17614.178173 -16157.397119  11021.843332    320.850464                    
V 19  14132.968807  -3749.571140 -27815.959896      0.051103                    
P 20  -1729.321379 -26312.989054   3968.593675    431.973637                    
V 20   3800.162936   4388.354287  30831.093705     -0.021000                    
P 21  18772.533393  16288.330898  -9933.344044    153.642478                    
V 21 -12757.354620  -3716.030003 -27774.262787     -0.002624                    
P 22 -14187.941180  17704.889103  14127.358101    486.211858                    
V 22 -16460.679361   5545.722671 -24418.664609      0.062674                    
P 23 -14646.343145   4085.077099 -21758.055827     26.665956                    
V 23  -1352.386889 -27583.951518  -4415.678731      0.032342                    
P 24 -20888.199059 -15345.866272  -7088.710391   -199.356284                    
V 24   8975.052690    750.421247 -29149.823151     -0.136748                    
P 25 -15002.420490  -5271.079171  20998.447819    444.881486                    
V 25     53.133215 -27383.366651  -6475.641257      0.026288                    
P 26  -5309.126533  23976.029643   9556.842581    240.387251                    
V 26  -4471.435407 -12161.654175  28028.186408     -0.005819                    
P 27  -3905.110192  17826.775477 -19398.550728     31.322400                    
V 27 -21558.391205  11122.402282  15156.247837     -0.079493                    
P 28 -12055.378835  10411.912099  21230.120904     79.888172                    
V 28 -23629.655264 -13096.486481  -6991.915796      0.026506                    
P 29 -22849.266358    961.639735  13530.042472   -600.462393                    
V 29  14685.057384  -9145.093509  25257.190624     -0.013206                    
P 30  18203.740335  -5277.298424 -18593.420216   -515.490785                    
V 30  19778.210553  13421.451251  15193.833026      0.022253                    
P 31  -1180.331646  16349.844907  20643.002750   -216.702627                    
V 31 -23475.307275 -12809.011981   9161.131289     -0.007609                    
P 32 -20035.932763  16444.063951   5478.395927   -483.560051                    
V 32  -7304.771797    968.328192 -30823.614842     -0.090387                    
EOF
